start=new Date('2022-03-07T00:00:00.000Z').valueOf();
sats=[{"COUNTRY_CODE":"US","MEAN_ANOMALY":"286.7625","PERIAPSIS":"546.228","GP_ID":"198066506","REV_AT_EPOCH":"4438","REF_FRAME":"TEME","DECAY_DATE":null,"INCLINATION":"53.0529","LAUNCH_DATE":"2021-05-15","CLASSIFICATION_TYPE":"U","EPOCH":"2022-03-06T13:42:19.156320","ARG_OF_PERICENTER":"73.3518","MEAN_MOTION":"15.06403971","ELEMENT_SET_NO":"999","BSTAR":"0.00011233000000","TLE_LINE1":"1 48555U 21041C   22065.57105505  .00001392  00000-0  11233-3 0  9996","OBJECT_TYPE":"PAYLOAD","OBJECT_ID":"2021-041C","RA_OF_ASC_NODE":"234.3091","APOAPSIS":"548.175","EPHEMERIS_TYPE":"0","PERIOD":"95.592","MEAN_ELEMENT_THEORY":"SGP4","SEMIMAJOR_AXIS":"6925.336","MEAN_MOTION_DOT":"0.00001392","SITE":"AFETR","TIME_SYSTEM":"UTC","OBJECT_NAME":"STARLINK-2145","CENTER_NAME":"EARTH","RCS_SIZE":"LARGE","TLE_LINE2":"2 48555  53.0529 234.3091 0001406  73.3518 286.7625 15.06403971 44384","ECCENTRICITY":"0.00014060","FILE":"3347638","NORAD_CAT_ID":"48555","MEAN_MOTION_DDOT":"0.0000000000000"},{"COUNTRY_CODE":"US","PERIAPSIS":"546.191","MEAN_ANOMALY":"282.8823","GP_ID":"198077990","DECAY_DATE":null,"REF_FRAME":"TEME","REV_AT_EPOCH":"4487","EPOCH":"2022-03-06T19:48:34.211808","INCLINATION":"53.0549","LAUNCH_DATE":"2021-05-15","CLASSIFICATION_TYPE":"U","OBJECT_TYPE":"PAYLOAD","OBJECT_ID":"2021-041D","TLE_LINE1":"1 48556U 21041D   22065.82539597 -.00001159  00000-0 -58926-4 0  9991","BSTAR":"-0.00005892600000","RA_OF_ASC_NODE":"233.1679","ARG_OF_PERICENTER":"77.2332","ELEMENT_SET_NO":"999","MEAN_MOTION":"15.06399143","SEMIMAJOR_AXIS":"6925.351","APOAPSIS":"548.241","MEAN_ELEMENT_THEORY":"SGP4","PERIOD":"95.592","EPHEMERIS_TYPE":"0","CENTER_NAME":"EARTH","OBJECT_NAME":"STARLINK-2151","TIME_SYSTEM":"UTC","SITE":"AFETR","MEAN_MOTION_DOT":"-0.00001159","NORAD_CAT_ID":"48556","MEAN_MOTION_DDOT":"0.0000000000000","TLE_LINE2":"2 48556  53.0549 233.1679 0001480  77.2332 282.8823 15.06399143 44871","RCS_SIZE":"LARGE","ECCENTRICITY":"0.00014800","FILE":"3347936"},{"DECAY_DATE":null,"REV_AT_EPOCH":"4452","REF_FRAME":"TEME","EPOCH":"2022-03-06T13:33:02.005056","CLASSIFICATION_TYPE":"U","INCLINATION":"53.0534","LAUNCH_DATE":"2021-05-15","MEAN_ANOMALY":"275.3724","PERIAPSIS":"546.212","COUNTRY_CODE":"US","GP_ID":"198068007","SITE":"AFETR","TIME_SYSTEM":"UTC","CENTER_NAME":"EARTH","OBJECT_NAME":"STARLINK-2155","MEAN_MOTION_DOT":"0.00005948","MEAN_MOTION_DDOT":"0.0000000000000","NORAD_CAT_ID":"48557","ECCENTRICITY":"0.00013770","FILE":"3347638","RCS_SIZE":"LARGE","TLE_LINE2":"2 48557  53.0534 224.3410 0001377  84.7422 275.3724 15.06415775 44528","RA_OF_ASC_NODE":"224.3410","BSTAR":"0.00041769000000","TLE_LINE1":"1 48557U 21041E   22065.56460654  .00005948  00000-0  41769-3 0  9994","OBJECT_TYPE":"PAYLOAD","OBJECT_ID":"2021-041E","MEAN_MOTION":"15.06415775","ELEMENT_SET_NO":"999","ARG_OF_PERICENTER":"84.7422","SEMIMAJOR_AXIS":"6925.300","EPHEMERIS_TYPE":"0","MEAN_ELEMENT_THEORY":"SGP4","PERIOD":"95.591","APOAPSIS":"548.119"},{"MEAN_MOTION_DDOT":"0.0000000000000","NORAD_CAT_ID":"48558","ECCENTRICITY":"0.00019680","FILE":"3347961","TLE_LINE2":"2 48558  53.0531 223.1582 0001968  84.1984 275.9229 15.06358467 44964","RCS_SIZE":"LARGE","OBJECT_NAME":"STARLINK-2166","CENTER_NAME":"EARTH","SITE":"AFETR","TIME_SYSTEM":"UTC","MEAN_MOTION_DOT":"0.00024271","SEMIMAJOR_AXIS":"6925.476","PERIOD":"95.595","MEAN_ELEMENT_THEORY":"SGP4","EPHEMERIS_TYPE":"0","APOAPSIS":"548.704","RA_OF_ASC_NODE":"223.1582","OBJECT_ID":"2021-041F","OBJECT_TYPE":"PAYLOAD","BSTAR":"0.00164450000000","TLE_LINE1":"1 48558U 21041F   22065.82633891  .00024271  00000-0  16445-2 0  9991","ELEMENT_SET_NO":"999","MEAN_MOTION":"15.06358467","ARG_OF_PERICENTER":"84.1984","EPOCH":"2022-03-06T19:49:55.681824","CLASSIFICATION_TYPE":"U","INCLINATION":"53.0531","LAUNCH_DATE":"2021-05-15","DECAY_DATE":null,"REF_FRAME":"TEME","REV_AT_EPOCH":"4496","GP_ID":"198078807","PERIAPSIS":"545.978","MEAN_ANOMALY":"275.9229","COUNTRY_CODE":"US"},{"APOAPSIS":"548.186","MEAN_ELEMENT_THEORY":"SGP4","PERIOD":"95.591","EPHEMERIS_TYPE":"0","SEMIMAJOR_AXIS":"6925.316","ARG_OF_PERICENTER":"69.2467","ELEMENT_SET_NO":"999","MEAN_MOTION":"15.06410673","OBJECT_ID":"2021-041G","OBJECT_TYPE":"PAYLOAD","BSTAR":"0.00017669000000","TLE_LINE1":"1 48559U 21041G   22065.79587343  .00002352  00000-0  17669-3 0  9994","RA_OF_ASC_NODE":"223.2841","TLE_LINE2":"2 48559  53.0536 223.2841 0001451  69.2467 290.8678 15.06410673 45004","RCS_SIZE":"LARGE","FILE":"3347961","ECCENTRICITY":"0.00014510","NORAD_CAT_ID":"48559","MEAN_MOTION_DDOT":"0.0000000000000","MEAN_MOTION_DOT":"0.00002352","OBJECT_NAME":"STARLINK-2167","CENTER_NAME":"EARTH","SITE":"AFETR","TIME_SYSTEM":"UTC","GP_ID":"198078302","COUNTRY_CODE":"US","PERIAPSIS":"546.176","MEAN_ANOMALY":"290.8678","INCLINATION":"53.0536","LAUNCH_DATE":"2021-05-15","CLASSIFICATION_TYPE":"U","EPOCH":"2022-03-06T19:06:03.464352","REF_FRAME":"TEME","REV_AT_EPOCH":"4500","DECAY_DATE":null},{"GP_ID":"198067759","COUNTRY_CODE":"US","PERIAPSIS":"546.217","MEAN_ANOMALY":"268.9312","INCLINATION":"53.0528","LAUNCH_DATE":"2021-05-15","CLASSIFICATION_TYPE":"U","EPOCH":"2022-03-06T14:00:01.000224","REF_FRAME":"TEME","REV_AT_EPOCH":"358","DECAY_DATE":null,"APOAPSIS":"548.083","PERIOD":"95.591","MEAN_ELEMENT_THEORY":"SGP4","EPHEMERIS_TYPE":"0","SEMIMAJOR_AXIS":"6925.285","ARG_OF_PERICENTER":"83.0322","ELEMENT_SET_NO":"999","MEAN_MOTION":"15.06420753","OBJECT_TYPE":"PAYLOAD","OBJECT_ID":"2021-041J","TLE_LINE1":"1 48561U 21041J   22065.58334491 -.00035253  00000-0 -23582-2 0  9996","BSTAR":"-0.00235820000000","RA_OF_ASC_NODE":"194.2547","TLE_LINE2":"2 48561  53.0528 194.2547 0001347  83.0322 268.9312 15.06420753  3584","RCS_SIZE":"LARGE","FILE":"3347638","ECCENTRICITY":"0.00013470","NORAD_CAT_ID":"48561","MEAN_MOTION_DDOT":"0.0000000000000","MEAN_MOTION_DOT":"-0.00035253","CENTER_NAME":"EARTH","OBJECT_NAME":"STARLINK-2186","SITE":"AFETR","TIME_SYSTEM":"UTC"},{"CENTER_NAME":"EARTH","OBJECT_NAME":"STARLINK-2187","SITE":"AFETR","TIME_SYSTEM":"UTC","MEAN_MOTION_DOT":"0.00002715","NORAD_CAT_ID":"48562","MEAN_MOTION_DDOT":"0.0000000000000","TLE_LINE2":"2 48562  53.0519 224.1555 0001243  95.7541 264.3590 15.06416712 44533","RCS_SIZE":"LARGE","FILE":"3347638","ECCENTRICITY":"0.00012430","OBJECT_ID":"2021-041K","OBJECT_TYPE":"PAYLOAD","TLE_LINE1":"1 48562U 21041K   22065.60515854  .00002715  00000-0  20098-3 0  9999","BSTAR":"0.00020098000000","RA_OF_ASC_NODE":"224.1555","ARG_OF_PERICENTER":"95.7541","ELEMENT_SET_NO":"999","MEAN_MOTION":"15.06416712","SEMIMAJOR_AXIS":"6925.297","APOAPSIS":"548.023","PERIOD":"95.591","MEAN_ELEMENT_THEORY":"SGP4","EPHEMERIS_TYPE":"0","DECAY_DATE":null,"REF_FRAME":"TEME","REV_AT_EPOCH":"4453","EPOCH":"2022-03-06T14:31:25.697856","LAUNCH_DATE":"2021-05-15","INCLINATION":"53.0519","CLASSIFICATION_TYPE":"U","COUNTRY_CODE":"US","PERIAPSIS":"546.302","MEAN_ANOMALY":"264.3590","GP_ID":"198067507"},{"PERIOD":"95.592","MEAN_ELEMENT_THEORY":"SGP4","EPHEMERIS_TYPE":"0","APOAPSIS":"548.215","SEMIMAJOR_AXIS":"6925.323","ELEMENT_SET_NO":"999","MEAN_MOTION":"15.06408290","ARG_OF_PERICENTER":"80.1479","RA_OF_ASC_NODE":"223.1831","OBJECT_ID":"2021-041L","OBJECT_TYPE":"PAYLOAD","TLE_LINE1":"1 48563U 21041L   22065.82261993  .00003590  00000-0  25975-3 0  9997","BSTAR":"0.00025975000000","ECCENTRICITY":"0.00014830","FILE":"3347981","TLE_LINE2":"2 48563  53.0538 223.1831 0001483  80.1479 279.9678 15.06408290 45010","RCS_SIZE":"LARGE","MEAN_MOTION_DDOT":"0.0000000000000","NORAD_CAT_ID":"48563","MEAN_MOTION_DOT":"0.00003590","OBJECT_NAME":"STARLINK-2188","CENTER_NAME":"EARTH","SITE":"AFETR","TIME_SYSTEM":"UTC","GP_ID":"198078475","PERIAPSIS":"546.161","MEAN_ANOMALY":"279.9678","COUNTRY_CODE":"US","CLASSIFICATION_TYPE":"U","INCLINATION":"53.0538","LAUNCH_DATE":"2021-05-15","EPOCH":"2022-03-06T19:44:34.361952","REF_FRAME":"TEME","REV_AT_EPOCH":"4501","DECAY_DATE":null},{"MEAN_MOTION_DOT":"0.00000120","CENTER_NAME":"EARTH","OBJECT_NAME":"STARLINK-2190","SITE":"AFETR","TIME_SYSTEM":"UTC","FILE":"3347638","ECCENTRICITY":"0.00014100","TLE_LINE2":"2 48564  53.0543 224.1112 0001410  80.5671 279.5477 15.06401070 44536","RCS_SIZE":"LARGE","MEAN_MOTION_DDOT":"0.0000000000000","NORAD_CAT_ID":"48564","ELEMENT_SET_NO":"999","MEAN_MOTION":"15.06401070","ARG_OF_PERICENTER":"80.5671","RA_OF_ASC_NODE":"224.1112","OBJECT_TYPE":"PAYLOAD","OBJECT_ID":"2021-041M","TLE_LINE1":"1 48564U 21041M   22065.61621336  .00000120  00000-0  26975-4 0  9994","BSTAR":"0.00002697500000","MEAN_ELEMENT_THEORY":"SGP4","PERIOD":"95.592","EPHEMERIS_TYPE":"0","APOAPSIS":"548.187","SEMIMAJOR_AXIS":"6925.345","REF_FRAME":"TEME","REV_AT_EPOCH":"4453","DECAY_DATE":null,"CLASSIFICATION_TYPE":"U","LAUNCH_DATE":"2021-05-15","INCLINATION":"53.0543","EPOCH":"2022-03-06T14:47:20.834304","PERIAPSIS":"546.234","MEAN_ANOMALY":"279.5477","COUNTRY_CODE":"US","GP_ID":"198067008"},{"DECAY_DATE":null,"REV_AT_EPOCH":"4453","REF_FRAME":"TEME","EPOCH":"2022-03-06T14:42:02.011392","LAUNCH_DATE":"2021-05-15","INCLINATION":"53.0524","CLASSIFICATION_TYPE":"U","COUNTRY_CODE":"US","MEAN_ANOMALY":"290.4508","PERIAPSIS":"546.333","GP_ID":"198067259","TIME_SYSTEM":"UTC","SITE":"AFETR","OBJECT_NAME":"STARLINK-2191","CENTER_NAME":"EARTH","MEAN_MOTION_DOT":"0.00004799","NORAD_CAT_ID":"48565","MEAN_MOTION_DDOT":"0.0000000000000","RCS_SIZE":"LARGE","TLE_LINE2":"2 48565  53.0524 224.1259 0001213  69.6611 290.4508 15.06413118 44534","ECCENTRICITY":"0.00012130","FILE":"3347638","BSTAR":"0.00034073000000","TLE_LINE1":"1 48565U 21041N   22065.61252328  .00004799  00000-0  34073-3 0  9999","OBJECT_TYPE":"PAYLOAD","OBJECT_ID":"2021-041N","RA_OF_ASC_NODE":"224.1259","ARG_OF_PERICENTER":"69.6611","MEAN_MOTION":"15.06413118","ELEMENT_SET_NO":"999","SEMIMAJOR_AXIS":"6925.308","APOAPSIS":"548.013","EPHEMERIS_TYPE":"0","MEAN_ELEMENT_THEORY":"SGP4","PERIOD":"95.591"}];
